[{"OBJECT_NAME":"SL-8 R/B","OBJECT_ID":"1979-089B","EPOCH":"2026-03-21T22:51:55.962720","MEAN_MOTION":14.42357181,"ECCENTRICITY":0.00169561,"INCLINATION":74.0674,"RA_OF_ASC_NODE":68.3406,"ARG_OF_PERICENTER":239.6087,"MEAN_ANOMALY":120.3394,"EPHEMERIS_TYPE":0,"CLASSIFICATION_TYPE":"U","NORAD_CAT_ID":11574,"ELEMENT_SET_NO":999,"REV_AT_EPOCH":43787,"BSTAR":4.8875723e-5,"MEAN_MOTION_DOT":1.35e-6,"MEAN_MOTION_DDOT":0},{"OBJECT_NAME":"SL-14 R/B","OBJECT_ID":"1980-005B","EPOCH":"2026-03-21T21:00:21.306240","MEAN_MOTION":14.90943511,"ECCENTRICITY":0.00170221,"INCLINATION":82.5122,"RA_OF_ASC_NODE":295.6757,"ARG_OF_PERICENTER":120.0641,"MEAN_ANOMALY":240.2269,"EPHEMERIS_TYPE":0,"CLASSIFICATION_TYPE":"U","NORAD_CAT_ID":11672,"ELEMENT_SET_NO":999,"REV_AT_EPOCH":47830,"BSTAR":5.021411e-5,"MEAN_MOTION_DOT":5.22e-6,"MEAN_MOTION_DDOT":0},{"OBJECT_NAME":"SL-8 R/B","OBJECT_ID":"1981-003B","EPOCH":"2026-03-21T18:53:27.028896","MEAN_MOTION":15.11472903,"ECCENTRICITY":0.02613747,"INCLINATION":82.9348,"RA_OF_ASC_NODE":278.8336,"ARG_OF_PERICENTER":136.4789,"MEAN_ANOMALY":225.74,"EPHEMERIS_TYPE":0,"CLASSIFICATION_TYPE":"U","NORAD_CAT_ID":12139,"ELEMENT_SET_NO":999,"REV_AT_EPOCH":31650,"BSTAR":0.00066906665,"MEAN_MOTION_DOT":0.00026457,"MEAN_MOTION_DDOT":0},{"OBJECT_NAME":"SL-3 R/B","OBJECT_ID":"1981-046B","EPOCH":"2026-03-21T22:01:53.555808","MEAN_MOTION":15.42282479,"ECCENTRICITY":0.00185845,"INCLINATION":81.2281,"RA_OF_ASC_NODE":275.0546,"ARG_OF_PERICENTER":339.4556,"MEAN_ANOMALY":20.5937,"EPHEMERIS_TYPE":0,"CLASSIFICATION_TYPE":"U","NORAD_CAT_ID":12465,"ELEMENT_SET_NO":999,"REV_AT_EPOCH":44031,"BSTAR":0.00033172246,"MEAN_MOTION_DOT":0.00014397,"MEAN_MOTION_DDOT":0},{"OBJECT_NAME":"SL-3 R/B","OBJECT_ID":"1981-103B","EPOCH":"2026-03-21T22:32:28.662432","MEAN_MOTION":15.21515707,"ECCENTRICITY":0.00124451,"INCLINATION":81.1609,"RA_OF_ASC_NODE":199.0625,"ARG_OF_PERICENTER":242.1999,"MEAN_ANOMALY":117.7972,"EPHEMERIS_TYPE":0,"CLASSIFICATION_TYPE":"U","NORAD_CAT_ID":12904,"ELEMENT_SET_NO":999,"REV_AT_EPOCH":97509,"BSTAR":0.00032688612,"MEAN_MOTION_DOT":7.397e-5,"MEAN_MOTION_DDOT":0},{"OBJECT_NAME":"SL-3 R/B","OBJECT_ID":"1982-013B","EPOCH":"2026-03-21T22:36:54.657792","MEAN_MOTION":15.22124076,"ECCENTRICITY":0.00233197,"INCLINATION":81.1744,"RA_OF_ASC_NODE":146.4103,"ARG_OF_PERICENTER":136.7935,"MEAN_ANOMALY":223.5132,"EPHEMERIS_TYPE":0,"CLASSIFICATION_TYPE":"U","NORAD_CAT_ID":13068,"ELEMENT_SET_NO":999,"REV_AT_EPOCH":40621,"BSTAR":0.00021964357,"MEAN_MOTION_DOT":5.095e-5,"MEAN_MOTION_DDOT":0},{"OBJECT_NAME":"SL-3 R/B","OBJECT_ID":"1982-039B","EPOCH":"2026-03-21T21:57:33.341472","MEAN_MOTION":15.10145644,"ECCENTRICITY":0.00290743,"INCLINATION":81.158,"RA_OF_ASC_NODE":201.8662,"ARG_OF_PERICENTER":284.2681,"MEAN_ANOMALY":75.5315,"EPHEMERIS_TYPE":0,"CLASSIFICATION_TYPE":"U","NORAD_CAT_ID":13154,"ELEMENT_SET_NO":999,"REV_AT_EPOCH":38348,"BSTAR":0.000186641,"MEAN_MOTION_DOT":3.096e-5,"MEAN_MOTION_DDOT":0},{"OBJECT_NAME":"SL-3 R/B","OBJECT_ID":"1982-079B","EPOCH":"2026-03-21T22:30:15.005952","MEAN_MOTION":15.24963825,"ECCENTRICITY":0.00254674,"INCLINATION":81.149,"RA_OF_ASC_NODE":178.6164,"ARG_OF_PERICENTER":124.3435,"MEAN_ANOMALY":236.0213,"EPHEMERIS_TYPE":0,"CLASSIFICATION_TYPE":"U","NORAD_CAT_ID":13403,"ELEMENT_SET_NO":999,"REV_AT_EPOCH":37956,"BSTAR":0.00031719487,"MEAN_MOTION_DOT":8.006e-5,"MEAN_MOTION_DDOT":0},{"OBJECT_NAME":"SL-14 R/B","OBJECT_ID":"1982-092B","EPOCH":"2026-03-21T15:13:21.944064","MEAN_MOTION":14.86676982,"ECCENTRICITY":0.00187729,"INCLINATION":82.5672,"RA_OF_ASC_NODE":130.2266,"ARG_OF_PERICENTER":260.8119,"MEAN_ANOMALY":215.2487,"EPHEMERIS_TYPE":0,"CLASSIFICATION_TYPE":"U","NORAD_CAT_ID":13553,"ELEMENT_SET_NO":999,"REV_AT_EPOCH":33070,"BSTAR":4.6398891e-5,"MEAN_MOTION_DOT":4.38e-6,"MEAN_MOTION_DDOT":0},{"OBJECT_NAME":"SL-3 R/B","OBJECT_ID":"1983-010B","EPOCH":"2026-03-21T23:44:25.755936","MEAN_MOTION":15.46764879,"ECCENTRICITY":0.00167713,"INCLINATION":81.1058,"RA_OF_ASC_NODE":347.1659,"ARG_OF_PERICENTER":10.1236,"MEAN_ANOMALY":350.0343,"EPHEMERIS_TYPE":0,"CLASSIFICATION_TYPE":"U","NORAD_CAT_ID":13819,"ELEMENT_SET_NO":999,"REV_AT_EPOCH":35984,"BSTAR":0.00040655021,"MEAN_MOTION_DOT":0.0002052,"MEAN_MOTION_DDOT":0},{"OBJECT_NAME":"SL-3 R/B","OBJECT_ID":"1983-075B","EPOCH":"2026-03-21T21:56:28.549248","MEAN_MOTION":15.38693265,"ECCENTRICITY":0.00214688,"INCLINATION":97.6142,"RA_OF_ASC_NODE":85.9567,"ARG_OF_PERICENTER":180.5651,"MEAN_ANOMALY":179.5573,"EPHEMERIS_TYPE":0,"CLASSIFICATION_TYPE":"U","NORAD_CAT_ID":14208,"ELEMENT_SET_NO":999,"REV_AT_EPOCH":33203,"BSTAR":0.00037474757,"MEAN_MOTION_DOT":0.00014361,"MEAN_MOTION_DDOT":0},{"OBJECT_NAME":"COSMOS 1536","OBJECT_ID":"1984-013A","EPOCH":"2026-03-21T12:56:31.781472","MEAN_MOTION":15.23973546,"ECCENTRICITY":0.00126955,"INCLINATION":82.5413,"RA_OF_ASC_NODE":96.0666,"ARG_OF_PERICENTER":236.1827,"MEAN_ANOMALY":123.8202,"EPHEMERIS_TYPE":0,"CLASSIFICATION_TYPE":"U","NORAD_CAT_ID":14699,"ELEMENT_SET_NO":999,"REV_AT_EPOCH":27442,"BSTAR":0.00032108158,"MEAN_MOTION_DOT":7.818e-5,"MEAN_MOTION_DDOT":0},{"OBJECT_NAME":"SL-14 R/B","OBJECT_ID":"1984-027B","EPOCH":"2026-03-21T21:08:52.437408","MEAN_MOTION":14.8598873,"ECCENTRICITY":0.00165931,"INCLINATION":82.5401,"RA_OF_ASC_NODE":233.5766,"ARG_OF_PERICENTER":295.203,"MEAN_ANOMALY":64.7466,"EPHEMERIS_TYPE":0,"CLASSIFICATION_TYPE":"U","NORAD_CAT_ID":14820,"ELEMENT_SET_NO":999,"REV_AT_EPOCH":24944,"BSTAR":5.5350174e-5,"MEAN_MOTION_DOT":5.08e-6,"MEAN_MOTION_DDOT":0},{"OBJECT_NAME":"SL-8 R/B","OBJECT_ID":"1985-006B","EPOCH":"2026-03-21T20:14:15.414144","MEAN_MOTION":14.37792128,"ECCENTRICITY":0.00179468,"INCLINATION":74.0439,"RA_OF_ASC_NODE":238.7825,"ARG_OF_PERICENTER":153.2427,"MEAN_ANOMALY":313.8339,"EPHEMERIS_TYPE":0,"CLASSIFICATION_TYPE":"U","NORAD_CAT_ID":15483,"ELEMENT_SET_NO":999,"REV_AT_EPOCH":15577,"BSTAR":0.00012480411,"MEAN_MOTION_DOT":3.5e-6,"MEAN_MOTION_DDOT":0},{"OBJECT_NAME":"SL-12 R/B(2)","OBJECT_ID":"1985-042D","EPOCH":"2026-03-21T16:11:32.345952","MEAN_MOTION":14.21985563,"ECCENTRICITY":0.00329011,"INCLINATION":71.1072,"RA_OF_ASC_NODE":62.4053,"ARG_OF_PERICENTER":108.2923,"MEAN_ANOMALY":64.0941,"EPHEMERIS_TYPE":0,"CLASSIFICATION_TYPE":"U","NORAD_CAT_ID":15772,"ELEMENT_SET_NO":999,"REV_AT_EPOCH":11609,"BSTAR":5.7145719e-5,"MEAN_MOTION_DOT":8.0e-7,"MEAN_MOTION_DDOT":0},{"OBJECT_NAME":"SL-14 R/B","OBJECT_ID":"1985-069B","EPOCH":"2026-03-21T20:41:37.760640","MEAN_MOTION":14.86446133,"ECCENTRICITY":0.00195545,"INCLINATION":82.5301,"RA_OF_ASC_NODE":13.4894,"ARG_OF_PERICENTER":147.945,"MEAN_ANOMALY":212.2961,"EPHEMERIS_TYPE":0,"CLASSIFICATION_TYPE":"U","NORAD_CAT_ID":15945,"ELEMENT_SET_NO":999,"REV_AT_EPOCH":17464,"BSTAR":5.4127642e-5,"MEAN_MOTION_DOT":5.04e-6,"MEAN_MOTION_DDOT":0},{"OBJECT_NAME":"SL-16 R/B","OBJECT_ID":"1985-097B","EPOCH":"2026-03-21T20:54:50.584320","MEAN_MOTION":14.16601397,"ECCENTRICITY":0.00095717,"INCLINATION":71.0013,"RA_OF_ASC_NODE":114.908,"ARG_OF_PERICENTER":245.2094,"MEAN_ANOMALY":287.4247,"EPHEMERIS_TYPE":0,"CLASSIFICATION_TYPE":"U","NORAD_CAT_ID":16182,"ELEMENT_SET_NO":999,"REV_AT_EPOCH":8895,"BSTAR":0.00015343638,"MEAN_MOTION_DOT":2.58e-6,"MEAN_MOTION_DDOT":0}]
